SL-8 R/B                
1 11574U 79089B   26064.51458021  .00000375  00000+0  12143-3 0  9993
2 11574  74.0672  98.7734 0017140 271.8665  88.0529 14.42347568435505
SL-14 R/B               
1 11672U 80005B   26064.63370136  .00000787  00000+0  77043-4 0  9993
2 11672  82.5153 311.0835 0015831 171.4086 188.7408 14.90925035475885
SL-8 R/B                
1 12139U 81003B   26064.62951020  .00020779  00000+0  53522-3 0  9995
2 12139  82.9382 293.7791 0262618 192.7413 166.7102 15.10782534314063
SL-3 R/B                
1 12465U 81046B   26064.63123281  .00014424  00000+0  33663-3 0  9999
2 12465  81.2302 294.6181 0019912  36.0727 324.1855 15.41869480437800
SL-3 R/B                
1 12904U 81103B   26064.56291063  .00008025  00000+0  35676-3 0  9993
2 12904  81.1581 218.2727 0012464 301.4510  58.5502 15.21316164972601
SL-3 R/B                
1 13068U 82013B   26064.57271253  .00006271  00000+0  27201-3 0  9992
2 13068  81.1766 165.5946 0022399 191.1280 168.9460 15.21964869403723
SL-3 R/B                
1 13154U 82039B   26064.61480761  .00003886  00000+0  23508-3 0  9992
2 13154  81.1583 220.6597 0029826 337.7579  22.2350 15.10052486381021
SL-3 R/B                
1 13403U 82079B   26064.59815600  .00009042  00000+0  36112-3 0  9999
2 13403  81.1477 197.9069 0024896 178.3632 181.7688 15.24724344377070
SL-14 R/B               
1 13553U 82092B   26064.61566595  .00000679  00000+0  73508-4 0  9997
2 13553  82.5701 145.2097 0019243 317.9531 159.4229 14.86661816328325
SL-3 R/B                
1 13819U 83010B   26064.55467820  .00020103  00000+0  40596-3 0  9991
2 13819  81.1066   7.3152 0018329  64.3601 295.9534 15.46178627357309
SL-3 R/B                
1 14208U 83075B   26064.58917328  .00013811  00000+0  36561-3 0  9996
2 14208  97.6138  69.0109 0019805 241.9275 117.9967 15.38298920329527
COSMOS 1536             
1 14699U 84013A   26064.58285331  .00007429  00000+0  30694-3 0  9994
2 14699  82.5433 111.9331 0012740 299.5867  60.4100 15.23762648271998
SL-14 R/B               
1 14820U 84027B   26064.58555959  .00000699  00000+0  77064-4 0  9996
2 14820  82.5381 248.8629 0017712 351.9513   8.1417 14.85971585247027
SL-8 R/B                
1 15483U 85006B   26064.62148559  .00000221  00000+0  81884-4 0  9995
2 15483  74.0432 268.6351 0018608 187.3907 229.2677 14.37779330153448
SL-12 R/B(2)            
1 15772U 85042D   26064.55432426  .00000133  00000+0  81141-4 0  9995
2 15772  71.1063  96.4665 0033428 134.9173 340.1837 14.21981266113805
SL-14 R/B               
1 15945U 85069B   26064.63890293  .00000793  00000+0  86875-4 0  9996
2 15945  82.5277  28.7415 0018110 201.3910 158.6552 14.86427690172235
SL-16 R/B               
1 16182U 85097B   26064.61661403 -.00000090  00000+0 -21326-4 0  9990
2 16182  71.0035 149.1289 0009963 264.6550 197.2173 14.16599676 86654
